[{"OBJECT_NAME":"LYNK TOWER 5","OBJECT_ID":"2024-043Z","EPOCH":"2026-03-09T22:11:51.175104","MEAN_MOTION":15.29454506,"ECCENTRICITY":0.00104056,"INCLINATION":97.5458,"RA_OF_ASC_NODE":204.7305,"ARG_OF_PERICENTER":234.6422,"MEAN_ANOMALY":125.3846,"EPHEMERIS_TYPE":0,"CLASSIFICATION_TYPE":"U","NORAD_CAT_ID":59121,"ELEMENT_SET_NO":999,"REV_AT_EPOCH":11186,"BSTAR":0.00031901545,"MEAN_MOTION_DOT":9.048e-5,"MEAN_MOTION_DDOT":0},{"OBJECT_NAME":"STARLINK-31999","OBJECT_ID":"2024-117L","EPOCH":"2026-03-09T07:17:03.273504","MEAN_MOTION":15.30197018,"ECCENTRICITY":0.00013135,"INCLINATION":53.1615,"RA_OF_ASC_NODE":39.1798,"ARG_OF_PERICENTER":95.3004,"MEAN_ANOMALY":264.8147,"EPHEMERIS_TYPE":0,"CLASSIFICATION_TYPE":"U","NORAD_CAT_ID":60101,"ELEMENT_SET_NO":999,"REV_AT_EPOCH":9682,"BSTAR":4.4260469e-5,"MEAN_MOTION_DOT":9.52e-6,"MEAN_MOTION_DDOT":0}]
